[{"OBJECT_NAME":"STARLINK-5315","OBJECT_ID":"2023-010AS","EPOCH":"2026-03-09T22:36:43.285824","MEAN_MOTION":14.98324735,"ECCENTRICITY":0.00026267,"INCLINATION":70.0021,"RA_OF_ASC_NODE":3.6806,"ARG_OF_PERICENTER":265.4453,"MEAN_ANOMALY":94.6406,"EPHEMERIS_TYPE":0,"CLASSIFICATION_TYPE":"U","NORAD_CAT_ID":55309,"ELEMENT_SET_NO":999,"REV_AT_EPOCH":17381,"BSTAR":-4.8305114e-5,"MEAN_MOTION_DOT":-6.69e-6,"MEAN_MOTION_DDOT":0},{"OBJECT_NAME":"DELTA 1 R\/B(1)","OBJECT_ID":"1978-039B","EPOCH":"2026-03-09T01:41:04.031520","MEAN_MOTION":13.07548501,"ECCENTRICITY":0.08739214,"INCLINATION":28.2291,"RA_OF_ASC_NODE":154.8062,"ARG_OF_PERICENTER":200.7275,"MEAN_ANOMALY":155.5602,"EPHEMERIS_TYPE":0,"CLASSIFICATION_TYPE":"U","NORAD_CAT_ID":10793,"ELEMENT_SET_NO":999,"REV_AT_EPOCH":28068,"BSTAR":0.00037803438,"MEAN_MOTION_DOT":1.016e-5,"MEAN_MOTION_DDOT":0}]
